[Satellite]
VERSION=1.1
NAME=ANIK G1
NICKNAME=ANIK G1
TLE1=1 39127U 13014A   15055.21638241 -.00000100  00000-0  00000+0 0  9995
TLE2=2 39127   0.0250 256.4508 0000570  62.9558 164.9154  1.00272214  6845
